NORAD_CAT_ID,OBJECT_NAME,OBJECT_TYPE,EPOCH,MEAN_MOTION,ECCENTRICITY,INCLINATION,RA_OF_ASC_NODE,ARG_OF_PERICENTER,MEAN_ANOMALY,BSTAR,MEAN_MOTION_DOT,MEAN_MOTION_DDOT,TLE_LINE0,TLE_LINE1,TLE_LINE2,SEMIMAJOR_AXIS,PERIOD,APOGEE,PERIGEE,DECAYED
52611.0,STARLINK-3980,PAYLOAD,2024-03-26 14:31:03,15.08821859,0.0001345,53.2163,245.2835,98.1952,261.9192,-0.0004958,-8.166e-05,0.0,0 STARLINK-3980,1 52611U 22052P   24086.60490343 -.00008166  00000-0 -49580-3 0  9997,2 52611  53.2163 245.2835 0001345  98.1952 261.9192 15.08821859103138,6917.936,95.439,540.731,538.87,0.0
52611.0,STARLINK-3980,PAYLOAD,2024-03-26 17:41:49,15.08818802,0.0001253,53.2163,244.6881,99.216,260.8974,-0.00060169,-9.845e-05,0.0,0 STARLINK-3980,1 52611U 22052P   24086.73738289 -.00009845  00000-0 -60169-3 0  9996,2 52611  53.2163 244.6881 0001253  99.2160 260.8974 15.08818802103155,6917.945,95.439,540.677,538.943,0.0
52611.0,STARLINK-3980,PAYLOAD,2024-03-27 11:11:05,15.08833914,0.0001262,53.2162,241.416,101.4266,258.6868,0.0010704,0.00016786,0.0,0 STARLINK-3980,1 52611U 22052P   24087.46603270  .00016786  00000-0  10704-2 0  9997,2 52611  53.2162 241.4160 0001262 101.4266 258.6868 15.08833914103633,6917.899,95.438,540.637,538.891,0.0
52611.0,STARLINK-3980,PAYLOAD,2024-03-27 14:21:51,15.08841815,0.0001328,53.2167,240.822,105.3761,254.7378,0.0011926,0.00018744,0.0,0 STARLINK-3980,1 52611U 22052P   24087.59851196  .00018744  00000-0  11926-2 0  9996,2 52611  53.2167 240.8220 0001328 105.3761 254.7378 15.08841815103287,6917.875,95.437,540.659,538.821,0.0
52611.0,STARLINK-3980,PAYLOAD,2024-03-27 20:43:23,15.08860539,0.000125,53.2164,239.6335,100.1837,259.9296,0.0014378,0.00022681,0.0,0 STARLINK-3980,1 52611U 22052P   24087.86346886  .00022681  00000-0  14378-2 0  9990,2 52611  53.2164 239.6335 0001250 100.1837 259.9296 15.08860539103323,6917.818,95.436,540.547,538.818,0.0
52611.0,STARLINK-3980,PAYLOAD,2024-03-28 03:04:55,15.08878745,0.0001217,53.2156,238.4392,78.2007,281.9122,0.0015928,0.00025179,0.0,0 STARLINK-3980,1 52611U 22052P   24088.12842261  .00025179  00000-0  15928-2 0  9995,2 52611  53.2156 238.4392 0001217  78.2007 281.9122 15.08878745103737,6917.762,95.435,540.469,538.785,0.0
52611.0,STARLINK-3980,PAYLOAD,2024-03-28 18:58:47,15.08858964,0.000148,53.2152,235.4692,84.6196,275.4965,0.0014831,0.00023407,0.0,0 STARLINK-3980,1 52611U 22052P   24088.79082264  .00023407  00000-0  14831-2 0  9991,2 52611  53.2152 235.4692 0001480  84.6196 275.4965 15.08858964103830,6917.822,95.436,540.711,538.664,0.0
52611.0,STARLINK-3980,PAYLOAD,2024-03-29 18:49:34,15.08857894,0.0001144,53.2163,231.0047,122.6156,237.4947,0.0018566,0.00029398,0.0,0 STARLINK-3980,1 52611U 22052P   24089.78442269  .00029398  00000-0  18566-2 0  9990,2 52611  53.2163 231.0047 0001144 122.6156 237.4947 15.08857894103989,6917.826,95.436,540.482,538.899,0.0
52611.0,STARLINK-3980,PAYLOAD,2024-03-30 09:08:02,15.08851963,0.0001627,53.2142,228.3315,94.6935,265.4243,0.0011794,0.00018538,0.0,0 STARLINK-3980,1 52611U 22052P   24090.38058363  .00018538  00000-0  11794-2 0  9996,2 52611  53.2142 228.3315 0001627  94.6935 265.4243 15.08851963104074,6917.844,95.437,540.834,538.583,0.0
52611.0,STARLINK-3980,PAYLOAD,2024-03-30 15:29:35,15.08846097,0.0001476,53.2192,227.1415,91.3462,268.7699,0.00060086,9.289e-05,0.0,0 STARLINK-3980,1 52611U 22052P   24090.64554435  .00009289  00000-0  60086-3 0  9998,2 52611  53.2192 227.1415 0001476  91.3462 268.7699 15.08846097103744,6917.862,95.437,540.748,538.706,0.0
52611.0,STARLINK-3980,PAYLOAD,2024-03-31 12:09:35,15.08844576,0.0001819,53.216,223.2746,109.5841,250.5348,0.00022828,3.347e-05,0.0,0 STARLINK-3980,1 52611U 22052P   24091.50666393  .00003347  00000-0  22828-3 0  9992,2 52611  53.2160 223.2746 0001819 109.5841 250.5348 15.08844576104243,6917.866,95.437,540.99,538.473,0.0
52611.0,STARLINK-3980,PAYLOAD,2024-03-31 15:20:22,15.08841312,0.0001519,53.2184,222.6821,93.0328,267.0838,0.0001575,2.22e-05,0.0,0 STARLINK-3980,1 52611U 22052P   24091.63914556  .00002220  00000-0  15750-3 0  9998,2 52611  53.2184 222.6821 0001519  93.0328 267.0838 15.08841312103892,6917.876,95.437,540.792,538.691,0.0
52611.0,STARLINK-3980,PAYLOAD,2024-03-31 18:31:08,15.08843887,0.0001567,53.2179,222.0861,97.9067,262.2103,0.00020724,3.012e-05,0.0,0 STARLINK-3980,1 52611U 22052P   24091.77162452  .00003012  00000-0  20724-3 0  9990,2 52611  53.2179 222.0861 0001567  97.9067 262.2103 15.08843887103914,6917.869,95.437,540.818,538.649,0.0
52611.0,STARLINK-3980,PAYLOAD,2024-04-01 12:00:23,15.08838443,0.0001527,53.2165,218.8136,93.1106,267.0061,0.00012807,1.751e-05,0.0,0 STARLINK-3980,1 52611U 22052P   24092.50026830  .00001751  00000-0  12807-3 0  9992,2 52611  53.2165 218.8136 0001527  93.1106 267.0061 15.08838443104396,6917.885,95.438,540.807,538.694,0.0
52611.0,STARLINK-3980,PAYLOAD,2024-04-01 15:11:09,15.08836628,0.0001449,53.2164,218.2194,92.5115,267.6043,6.8618e-05,8.04e-06,0.0,0 STARLINK-3980,1 52611U 22052P   24092.63274913  .00000804  00000-0  68618-4 0  9993,2 52611  53.2164 218.2194 0001449  92.5115 267.6043 15.08836628104040,6917.891,95.438,540.758,538.753,0.0
52611.0,STARLINK-3980,PAYLOAD,2024-04-02 11:51:10,15.08830808,0.0001386,53.2171,214.3546,90.8626,269.2525,0.00019946,2.887e-05,0.0,0 STARLINK-3980,1 52611U 22052P   24093.49387454  .00002887  00000-0  19946-3 0  9995,2 52611  53.2171 214.3546 0001386  90.8626 269.2525 15.08830808104546,6917.908,95.438,540.732,538.815,0.0
52611.0,STARLINK-3980,PAYLOAD,2024-04-02 15:01:56,15.08839758,0.0001363,53.2164,213.7628,92.2332,267.8817,8.4927e-05,1.064e-05,0.0,0 STARLINK-3980,1 52611U 22052P   24093.62634960  .00001064  00000-0  84927-4 0  9995,2 52611  53.2164 213.7628 0001363  92.2332 267.8817 15.08839758104199,6917.881,95.438,540.689,538.803,0.0
52611.0,STARLINK-3980,PAYLOAD,2024-04-03 00:34:14,15.08848823,0.0001284,53.2173,211.9795,93.9207,266.1932,0.00019911,2.883e-05,0.0,0 STARLINK-3980,1 52611U 22052P   24094.02378467  .00002883  00000-0  19911-3 0  9997,2 52611  53.2173 211.9795 0001284  93.9207 266.1932 15.08848823104626,6917.853,95.437,540.607,538.83,0.0
52611.0,STARLINK-3980,PAYLOAD,2024-04-03 14:52:43,15.08834873,0.0001324,53.2167,209.3039,97.0391,263.0751,4.3994e-05,4.12e-06,0.0,0 STARLINK-3980,1 52611U 22052P   24094.61995329  .00000412  00000-0  43994-4 0  9999,2 52611  53.2167 209.3039 0001324  97.0391 263.0751 15.08834873104349,6917.896,95.438,540.677,538.845,0.0
52611.0,STARLINK-3980,PAYLOAD,2024-04-04 14:43:31,15.08837826,0.0001345,53.2169,204.8427,88.7806,271.334,5.0893e-05,5.22e-06,0.0,0 STARLINK-3980,1 52611U 22052P   24095.61355411  .00000522  00000-0  50893-4 0  9990,2 52611  53.2169 204.8427 0001345  88.7806 271.3340 15.08837826104496,6917.887,95.438,540.682,538.822,0.0
52611.0,STARLINK-3980,PAYLOAD,2024-04-05 00:15:49,15.08849854,0.0001296,53.2164,203.0576,84.6935,275.4205,0.00014355,1.998e-05,0.0,0 STARLINK-3980,1 52611U 22052P   24096.01098761  .00001998  00000-0  14355-3 0  9997,2 52611  53.2164 203.0576 0001296  84.6935 275.4205 15.08849854104927,6917.85,95.437,540.612,538.819,0.0
52611.0,STARLINK-3980,PAYLOAD,2024-04-05 11:23:31,15.08842776,0.0001351,53.2164,200.9763,85.7369,274.3778,0.00030586,4.584e-05,0.0,0 STARLINK-3980,1 52611U 22052P   24096.47467128  .00004584  00000-0  30586-3 0  9992,2 52611  53.2164 200.9763 0001351  85.7369 274.3778 15.08842776104992,6917.872,95.437,540.672,538.802,0.0
52611.0,STARLINK-3980,PAYLOAD,2024-04-05 14:34:17,15.08851021,0.0001414,53.217,200.382,86.0695,274.0459,0.00022311,3.266e-05,0.0,0 STARLINK-3980,1 52611U 22052P   24096.60714610  .00003266  00000-0  22311-3 0  9991,2 52611  53.2170 200.3820 0001414  86.0695 274.0459 15.08851021104641,6917.847,95.437,540.69,538.734,0.0
52611.0,STARLINK-3980,PAYLOAD,2024-04-06 12:49:41,15.08842489,0.0001275,53.2178,196.2174,95.1567,264.9571,6.3288e-05,7.2e-06,0.0,0 STARLINK-3980,1 52611U 22052P   24097.53450862  .00000720  00000-0  63288-4 0  9991,2 52611  53.2178 196.2174 0001275  95.1567 264.9571 15.08842489105156,6917.873,95.437,540.62,538.856,0.0
52611.0,STARLINK-3980,PAYLOAD,2024-04-07 12:40:28,15.08839485,0.0001822,53.2157,191.7578,87.0132,273.1069,-1.5778e-06,-3.13e-06,0.0,0 STARLINK-3980,1 52611U 22052P   24098.52811039 -.00000313  00000-0 -15778-5 0  9990,2 52611  53.2157 191.7578 0001822  87.0132 273.1069 15.08839485104938,6917.882,95.438,541.007,538.487,0.0
52611.0,STARLINK-3980,PAYLOAD,2024-04-08 12:31:16,15.08837919,0.0001701,53.2166,187.2966,96.016,264.1026,0.00019059,2.746e-05,0.0,0 STARLINK-3980,1 52611U 22052P   24099.52171402  .00002746  00000-0  19059-3 0  9998,2 52611  53.2166 187.2966 0001701  96.0160 264.1026 15.08837919105086,6917.887,95.438,540.928,538.575,0.0
52611.0,STARLINK-3980,PAYLOAD,2024-04-09 12:22:03,15.0883177,0.0001128,53.2182,182.8364,91.7313,268.3808,0.00038447,5.835e-05,0.0,0 STARLINK-3980,1 52611U 22052P   24100.51532043  .00005835  00000-0  38447-3 0  9996,2 52611  53.2182 182.8364 0001128  91.7313 268.3808 15.08831770105603,6917.906,95.438,540.551,538.99,0.0
52611.0,STARLINK-3980,PAYLOAD,2024-04-09 21:54:21,15.08845775,0.0001221,53.2179,181.0518,87.6636,272.4496,0.00017842,2.553e-05,0.0,0 STARLINK-3980,1 52611U 22052P   24100.91275139  .00002553  00000-0  17842-3 0  9990,2 52611  53.2179 181.0518 0001221  87.6636 272.4496 15.08845775105291,6917.863,95.437,540.572,538.883,0.0
52611.0,STARLINK-3980,PAYLOAD,2024-04-10 12:12:50,15.08835123,0.0001368,53.2186,178.3797,91.4433,268.6716,1.371e-05,-7e-07,0.0,0 STARLINK-3980,1 52611U 22052P   24101.50891860 -.00000070  00000-0  13710-4 0  9995,2 52611  53.2186 178.3797 0001368  91.4433 268.6716 15.08835123105756,6917.895,95.438,540.707,538.814,0.0
52611.0,STARLINK-3980,PAYLOAD,2024-04-10 21:45:08,15.08843316,0.0001169,53.2172,176.5912,75.5299,284.5823,0.00011966,1.617e-05,0.0,0 STARLINK-3980,1 52611U 22052P   24101.90635407  .00001617  00000-0  11966-3 0  9999,2 52611  53.2172 176.5912 0001169  75.5299 284.5823 15.08843316105447,6917.87,95.437,540.544,538.927,0.0
